[{"OBJECT_NAME":"STARLINK-31417","OBJECT_ID":"2024-046R","EPOCH":"2026-03-09T22:32:22.560000","MEAN_MOTION":15.30194762,"ECCENTRICITY":0.00010089,"INCLINATION":53.1611,"RA_OF_ASC_NODE":154.4681,"ARG_OF_PERICENTER":92.4386,"MEAN_ANOMALY":267.673,"EPHEMERIS_TYPE":0,"CLASSIFICATION_TYPE":"U","NORAD_CAT_ID":59216,"ELEMENT_SET_NO":999,"REV_AT_EPOCH":11295,"BSTAR":2.8031089e-5,"MEAN_MOTION_DOT":4.71e-6,"MEAN_MOTION_DDOT":0},{"OBJECT_NAME":"TEVEL2-1","OBJECT_ID":"2025-052H","EPOCH":"2026-03-09T15:32:51.927072","MEAN_MOTION":15.30341923,"ECCENTRICITY":0.0004767,"INCLINATION":97.3991,"RA_OF_ASC_NODE":324.7682,"ARG_OF_PERICENTER":104.8919,"MEAN_ANOMALY":255.2849,"EPHEMERIS_TYPE":0,"CLASSIFICATION_TYPE":"U","NORAD_CAT_ID":63217,"ELEMENT_SET_NO":999,"REV_AT_EPOCH":5485,"BSTAR":0.000706,"MEAN_MOTION_DOT":0.00020683,"MEAN_MOTION_DDOT":0}]
